{
    "links": {
        "self": "http://www.neowsapp.com/rest/v1/neo/3551165?api_key=iIulBulltgU6a56xZRHN4H3l9WmuAYTsLGpBGhQ2"
    },
    "id": "3551165",
    "neo_reference_id": "3551165",
    "name": "(2010 VN98)",
    "designation": "2010 VN98",
    "nasa_jpl_url": "http://ssd.jpl.nasa.gov/sbdb.cgi?sstr=3551165",
    "absolute_magnitude_h": 22.3,
    "estimated_diameter": {
        "kilometers": {
            "estimated_diameter_min": 0.0921626549,
            "estimated_diameter_max": 0.2060819612
        },
        "meters": {
            "estimated_diameter_min": 92.1626548503,
            "estimated_diameter_max": 206.0819612321
        },
        "miles": {
            "estimated_diameter_min": 0.057267201,
            "estimated_diameter_max": 0.1280533543
        },
        "feet": {
            "estimated_diameter_min": 302.370924539,
            "estimated_diameter_max": 676.1219416887
        }
    },
    "is_potentially_hazardous_asteroid": false,
    "close_approach_data": [
        {
            "close_approach_date": "2008-11-24",
            "close_approach_date_full": "2008-Nov-24 06:29",
            "epoch_date_close_approach": 1227508140000,
            "relative_velocity": {
                "kilometers_per_second": "20.0766039279",
                "kilometers_per_hour": "72275.7741404224",
                "miles_per_hour": "44909.3553263085"
            },
            "miss_distance": {
                "astronomical": "0.4223418993",
                "lunar": "164.2909988277",
                "kilometers": "63181448.547034491",
                "miles": "39259131.6570023358"
            },
            "orbiting_body": "Earth"
        },
        {
            "close_approach_date": "2010-11-13",
            "close_approach_date_full": "2010-Nov-13 22:53",
            "epoch_date_close_approach": 1289688780000,
            "relative_velocity": {
                "kilometers_per_second": "15.0229231709",
                "kilometers_per_hour": "54082.5234151496",
                "miles_per_hour": "33604.7768409301"
            },
            "miss_distance": {
                "astronomical": "0.1184139921",
                "lunar": "46.0630429269",
                "kilometers": "17714480.996356827",
                "miles": "11007268.0773331326"
            },
            "orbiting_body": "Earth"
        },
        {
            "close_approach_date": "2012-11-06",
            "close_approach_date_full": "2012-Nov-06 14:30",
            "epoch_date_close_approach": 1352212200000,
            "relative_velocity": {
                "kilometers_per_second": "16.7666214944",
                "kilometers_per_hour": "60359.8373798162",
                "miles_per_hour": "37505.2556208086"
            },
            "miss_distance": {
                "astronomical": "0.4672656451",
                "lunar": "181.7663359439",
                "kilometers": "69901945.231135937",
                "miles": "43435054.6563804506"
            },
            "orbiting_body": "Earth"
        }
    ],
    "orbital_data": {
        "orbit_id": "16",
        "orbit_determination_date": "2017-04-06 08:55:48",
        "first_observation_date": "2010-11-08",
        "last_observation_date": "2010-11-24",
        "data_arc_in_days": 16,
        "observations_used": 94,
        "orbit_uncertainty": "8",
        "minimum_orbit_intersection": ".115826",
        "jupiter_tisserand_invariant": "4.279",
        "epoch_osculation": "2455513.5",
        "eccentricity": ".2978929249249251",
        "semi_major_axis": "1.551347181167418",
        "inclination": "27.43931042771975",
        "ascending_node_longitude": "54.30887351924996",
        "orbital_period": "705.7679430587542",
        "perihelion_distance": "1.089211831795418",
        "perihelion_argument": "338.332396542863",
        "aphelion_distance": "2.013482530539418",
        "perihelion_time": "2455494.201896025011",
        "mean_anomaly": "9.843628489113293",
        "mean_motion": ".5100826745399947",
        "equinox": "J2000",
        "orbit_class": {
            "orbit_class_type": "AMO",
            "orbit_class_description": "Near-Earth asteroid orbits similar to that of 1221 Amor",
            "orbit_class_range": "1.017 AU < q (perihelion) < 1.3 AU"
        }
    },
    "is_sentry_object": false
}